IRIDIUM 63              
1 25286U 98021B   25111.54866450  .00000864  00000+0  28795-3 0  9992
2 25286  86.3931 105.8982 0002460  89.6160 270.5319 14.36489162415988
IRIDIUM 69              
1 25319U 98026A   25111.59588291  .00000908  00000+0  27710-3 0  9998
2 25319  86.3935 119.3424 0002284 149.8832 210.2499 14.40901185415157
IRIDIUM 71              
1 25320U 98026B   25111.61031255  .00000877  00000+0  26632-3 0  9993
2 25320  86.3929 114.0357 0000235  53.1554 306.9667 14.41097917415690
IRIDIUM 73              
1 25344U 98032C   25111.88398643  .00001400  00000+0  34455-3 0  9997
2 25344  86.4393  70.7248 0002389 102.7113 257.4360 14.51629423422695
IRIDIUM 82              
1 25467U 98051A   25111.61400053  .00035393  00000+0  10950-2 0  9995
2 25467  86.3674 137.4929 0092913 149.5631 211.1058 15.29103047415301
